[{"OBJECT_NAME":"STARLINK-4754","OBJECT_ID":"2022-114AA","EPOCH":"2026-03-09T21:34:45.832512","MEAN_MOTION":15.08832557,"ECCENTRICITY":0.00014476,"INCLINATION":53.2177,"RA_OF_ASC_NODE":293.1541,"ARG_OF_PERICENTER":84.9325,"MEAN_ANOMALY":275.1832,"EPHEMERIS_TYPE":0,"CLASSIFICATION_TYPE":"U","NORAD_CAT_ID":53842,"ELEMENT_SET_NO":999,"REV_AT_EPOCH":19300,"BSTAR":0.00012653253,"MEAN_MOTION_DOT":1.726e-5,"MEAN_MOTION_DDOT":0},{"OBJECT_NAME":"PRSC-S1","OBJECT_ID":"2025-164A","EPOCH":"2026-03-09T14:34:55.095168","MEAN_MOTION":15.0891951,"ECCENTRICITY":0.0004466,"INCLINATION":41.129,"RA_OF_ASC_NODE":129.3637,"ARG_OF_PERICENTER":348.3012,"MEAN_ANOMALY":11.7698,"EPHEMERIS_TYPE":0,"CLASSIFICATION_TYPE":"U","NORAD_CAT_ID":65055,"ELEMENT_SET_NO":999,"REV_AT_EPOCH":3340,"BSTAR":0.00046631,"MEAN_MOTION_DOT":7.316e-5,"MEAN_MOTION_DDOT":0}]
